JILIN-1 GAOFEN 3A       
1 44312U 19032C   26068.74542089  .00016264  00000+0  55381-3 0  9993
2 44312  44.9746 183.2861 0002618 111.2900 248.8263 15.30271310372592
STARLINK-34880          
1 65327U 25189E   26068.68117592  .00029345  00000+0  99926-3 0  9999
2 65327  53.1582 206.9181 0001111  74.3546 285.7577 15.30191226 31105
