[{"OBJECT_NAME":"JILIN-1 GAOFEN 3A","OBJECT_ID":"2019-032C","EPOCH":"2026-03-09T17:53:24.364896","MEAN_MOTION":15.3027131,"ECCENTRICITY":0.00026181,"INCLINATION":44.9746,"RA_OF_ASC_NODE":183.2861,"ARG_OF_PERICENTER":111.29,"MEAN_ANOMALY":248.8263,"EPHEMERIS_TYPE":0,"CLASSIFICATION_TYPE":"U","NORAD_CAT_ID":44312,"ELEMENT_SET_NO":999,"REV_AT_EPOCH":37259,"BSTAR":0.00055381133,"MEAN_MOTION_DOT":0.00016264,"MEAN_MOTION_DDOT":0},{"OBJECT_NAME":"STARLINK-34880","OBJECT_ID":"2025-189E","EPOCH":"2026-03-09T16:20:53.599488","MEAN_MOTION":15.30191226,"ECCENTRICITY":0.00011111,"INCLINATION":53.1582,"RA_OF_ASC_NODE":206.9181,"ARG_OF_PERICENTER":74.3546,"MEAN_ANOMALY":285.7577,"EPHEMERIS_TYPE":0,"CLASSIFICATION_TYPE":"U","NORAD_CAT_ID":65327,"ELEMENT_SET_NO":999,"REV_AT_EPOCH":3110,"BSTAR":0.00099925706,"MEAN_MOTION_DOT":0.00029345,"MEAN_MOTION_DDOT":0}]
